{
    "links": {
        "self": "http://www.neowsapp.com/rest/v1/neo/3361626?api_key=iIulBulltgU6a56xZRHN4H3l9WmuAYTsLGpBGhQ2"
    },
    "id": "3361626",
    "neo_reference_id": "3361626",
    "name": "(2006 WG129)",
    "designation": "2006 WG129",
    "nasa_jpl_url": "http://ssd.jpl.nasa.gov/sbdb.cgi?sstr=3361626",
    "absolute_magnitude_h": 20.4,
    "estimated_diameter": {
        "kilometers": {
            "estimated_diameter_min": 0.2210828104,
            "estimated_diameter_max": 0.4943561926
        },
        "meters": {
            "estimated_diameter_min": 221.0828103591,
            "estimated_diameter_max": 494.3561926196
        },
        "miles": {
            "estimated_diameter_min": 0.137374447,
            "estimated_diameter_max": 0.3071786018
        },
        "feet": {
            "estimated_diameter_min": 725.3373275385,
            "estimated_diameter_max": 1621.9035709942
        }
    },
    "is_potentially_hazardous_asteroid": false,
    "close_approach_data": [
        {
            "close_approach_date": "2006-12-11",
            "close_approach_date_full": "2006-Dec-11 08:12",
            "epoch_date_close_approach": 1165824720000,
            "relative_velocity": {
                "kilometers_per_second": "18.3243380723",
                "kilometers_per_hour": "65967.6170602091",
                "miles_per_hour": "40989.7118338838"
            },
            "miss_distance": {
                "astronomical": "0.4031346486",
                "lunar": "156.8193783054",
                "kilometers": "60308084.753758482",
                "miles": "37473706.1871397716"
            },
            "orbiting_body": "Earth"
        },
        {
            "close_approach_date": "2013-12-16",
            "close_approach_date_full": "2013-Dec-16 12:08",
            "epoch_date_close_approach": 1387195680000,
            "relative_velocity": {
                "kilometers_per_second": "15.5597388372",
                "kilometers_per_hour": "56015.0598138433",
                "miles_per_hour": "34805.579804885"
            },
            "miss_distance": {
                "astronomical": "0.303164237",
                "lunar": "117.930888193",
                "kilometers": "45352724.11537519",
                "miles": "28180876.000710022"
            },
            "orbiting_body": "Earth"
        },
        {
            "close_approach_date": "2055-12-23",
            "close_approach_date_full": "2055-Dec-23 14:16",
            "epoch_date_close_approach": 2713184160000,
            "relative_velocity": {
                "kilometers_per_second": "12.7430846509",
                "kilometers_per_hour": "45875.1047433372",
                "miles_per_hour": "28505.0060556586"
            },
            "miss_distance": {
                "astronomical": "0.2014115827",
                "lunar": "78.3491056703",
                "kilometers": "30130743.765248849",
                "miles": "18722376.0076141562"
            },
            "orbiting_body": "Earth"
        },
        {
            "close_approach_date": "2062-12-19",
            "close_approach_date_full": "2062-Dec-19 05:02",
            "epoch_date_close_approach": 2933730120000,
            "relative_velocity": {
                "kilometers_per_second": "14.6612097171",
                "kilometers_per_hour": "52780.3549816342",
                "miles_per_hour": "32795.6600162271"
            },
            "miss_distance": {
                "astronomical": "0.2719800311",
                "lunar": "105.8002320979",
                "kilometers": "40687633.335093757",
                "miles": "25282123.0068055666"
            },
            "orbiting_body": "Earth"
        },
        {
            "close_approach_date": "2191-02-03",
            "close_approach_date_full": "2191-Feb-03 02:06",
            "epoch_date_close_approach": 6976980360000,
            "relative_velocity": {
                "kilometers_per_second": "7.8302943096",
                "kilometers_per_hour": "28189.0595144244",
                "miles_per_hour": "17515.58534106"
            },
            "miss_distance": {
                "astronomical": "0.1664586365",
                "lunar": "64.7524095985",
                "kilometers": "24901857.463504255",
                "miles": "15473296.721518519"
            },
            "orbiting_body": "Earth"
        }
    ],
    "orbital_data": {
        "orbit_id": "9",
        "orbit_determination_date": "2017-04-06 09:07:28",
        "first_observation_date": "2006-11-27",
        "last_observation_date": "2006-12-24",
        "data_arc_in_days": 27,
        "observations_used": 25,
        "orbit_uncertainty": "7",
        "minimum_orbit_intersection": ".0621455",
        "jupiter_tisserand_invariant": "3.988",
        "epoch_osculation": "2459000.5",
        "eccentricity": ".42477478657782",
        "semi_major_axis": "1.761063847650894",
        "inclination": "11.0513210987075",
        "ascending_node_longitude": "276.1251233640278",
        "orbital_period": "853.6131157069846",
        "perihelion_distance": "1.013008327615071",
        "perihelion_argument": "211.9937053678435",
        "aphelion_distance": "2.509119367686716",
        "perihelion_time": "2459228.440980042255",
        "mean_anomaly": "263.8689175397117",
        "mean_motion": ".4217367251929331",
        "equinox": "J2000",
        "orbit_class": {
            "orbit_class_type": "APO",
            "orbit_class_description": "Near-Earth asteroid orbits which cross the Earth’s orbit similar to that of 1862 Apollo",
            "orbit_class_range": "a (semi-major axis) > 1.0 AU; q (perihelion) < 1.017 AU"
        }
    },
    "is_sentry_object": false
}